[{"OBJECT_NAME":"TIANMU-1 19","OBJECT_ID":"2023-208A","EPOCH":"2026-03-09T22:13:36.801696","MEAN_MOTION":15.2984143,"ECCENTRICITY":0.00039292,"INCLINATION":97.4383,"RA_OF_ASC_NODE":184.9132,"ARG_OF_PERICENTER":316.2611,"MEAN_ANOMALY":43.8317,"EPHEMERIS_TYPE":0,"CLASSIFICATION_TYPE":"U","NORAD_CAT_ID":58660,"ELEMENT_SET_NO":999,"REV_AT_EPOCH":12214,"BSTAR":0.00040995676,"MEAN_MOTION_DOT":0.00011779,"MEAN_MOTION_DDOT":0},{"OBJECT_NAME":"STARLINK-32944","OBJECT_ID":"2025-032T","EPOCH":"2026-03-09T03:44:54.243168","MEAN_MOTION":15.27603756,"ECCENTRICITY":0.00025418,"INCLINATION":43.0004,"RA_OF_ASC_NODE":339.4817,"ARG_OF_PERICENTER":249.7055,"MEAN_ANOMALY":110.3524,"EPHEMERIS_TYPE":0,"CLASSIFICATION_TYPE":"U","NORAD_CAT_ID":63022,"ELEMENT_SET_NO":999,"REV_AT_EPOCH":6053,"BSTAR":0.001366495,"MEAN_MOTION_DOT":0.00037562,"MEAN_MOTION_DDOT":0}]
